{"type": "FeatureCollection", "features": [ {"type": "Feature", "properties": {"norad_id": 37918, "name": "FENGYUN 1C DEB", "group": "fengyun-1c-debris", "lat": 46.94789310071801, "lon": 121.43794837348588, "alt_km": 811.2579187796537, "timestamp": "2025-12-08T08:59:01.055549+00:00", "meta": {"OBJECT_NAME": "FENGYUN 1C DEB", "OBJECT_ID": "1999-025ENT", "EPOCH": "2025-12-06T02:47:32.341056", "MEAN_MOTION": 14.34339075, "ECCENTRICITY": 0.00554897, "INCLINATION": 99.0268, "RA_OF_ASC_NODE": 289.2839, "ARG_OF_PERICENTER": 303.257, "MEAN_ANOMALY": 56.3303, "EPHEMERIS_TYPE": 0, "CLASSIFICATION_TYPE": "U", "NORAD_CAT_ID": 37918, "ELEMENT_SET_NO": 999, "REV_AT_EPOCH": 3447, "BSTAR": 0.0014340263, "MEAN_MOTION_DOT": 4.055e-05, "MEAN_MOTION_DDOT": 0}, "tle": {"line1": "1 37918U 99025ENT 25340.11634654  .00004055  00000+0  14340-2 0  9994", "line2": "2 37918  99.0268 289.2839 0055489 303.2570  56.3303 14.34339075 34473"}}, "geometry": {"type": "Point", "coordinates": [121.43794837348588, 46.94789310071801]}}, {"type": "Feature", "properties": {"norad_id": 37919, "name": "FENGYUN 1C DEB", "group": "fengyun-1c-debris", "lat": 64.34225168242246, "lon": -99.2207455316825, "alt_km": 767.5716398439899, "timestamp": "2025-12-08T08:59:01.055558+00:00", "meta": {"OBJECT_NAME": "FENGYUN 1C DEB", "OBJECT_ID": "1999-025ENU", "EPOCH": "2025-12-05T06:37:21.613440", "MEAN_MOTION": 14.26732064, "ECCENTRICITY": 0.00501439, "INCLINATION": 99.0565, "RA_OF_ASC_NODE": 276.9671, "ARG_OF_PERICENTER": 37.6316, "MEAN_ANOMALY": 322.8355, "EPHEMERIS_TYPE": 0, "CLASSIFICATION_TYPE": "U", "NORAD_CAT_ID": 37919, "ELEMENT_SET_NO": 999, "REV_AT_EPOCH": 64802, "BSTAR": 0.00094687739, "MEAN_MOTION_DOT": 2.276e-05, "MEAN_MOTION_DDOT": 0}, "tle": {"line1": "1 37919U 99025ENU 25339.27594460  .00002276  00000+0  94688-3 0  9997", "line2": "2 37919  99.0565 276.9671 0050143  37.6316 322.8355 14.26732064648025"}}, "geometry": {"type": "Point", "coordinates": [-99.2207455316825, 64.34225168242246]}}, {"type": "Feature", "properties": {"norad_id": 37921, "name": "FENGYUN 1C DEB", "group": "fengyun-1c-debris", "lat": 43.70162914143407, "lon": -147.71857965693368, "alt_km": 851.0685344036547, "timestamp": "2025-12-08T08:59:01.055569+00:00", "meta": {"OBJECT_NAME": "FENGYUN 1C DEB", "OBJECT_ID": "1999-025ENW", "EPOCH": "2025-12-06T21:55:07.492224", "MEAN_MOTION": 13.9515085, "ECCENTRICITY": 0.00843998, "INCLINATION": 99.0229, "RA_OF_ASC_NODE": 22.1181, "ARG_OF_PERICENTER": 114.4559, "MEAN_ANOMALY": 246.5435, "EPHEMERIS_TYPE": 0, "CLASSIFICATION_TYPE": "U", "NORAD_CAT_ID": 37921, "ELEMENT_SET_NO": 999, "REV_AT_EPOCH": 63066, "BSTAR": 0.00047337206, "MEAN_MOTION_DOT": 6.15e-06, "MEAN_MOTION_DDOT": 0}, "tle": {"line1": "1 37921U 99025ENW 25340.91328116  .00000615  00000+0  47337-3 0  9990", "line2": "2 37921  99.0229  22.1181 0084399 114.4559 246.5435 13.95150850630669"}}, "geometry": {"type": "Point", "coordinates": [-147.71857965693368, 43.70162914143407]}}, {"type": "Feature", "properties": {"norad_id": 37925, "name": "FENGYUN 1C DEB", "group": "fengyun-1c-debris", "lat": 12.598152540858017, "lon": -151.0964789598945, "alt_km": 591.6199234181722, "timestamp": "2025-12-08T08:59:01.055579+00:00", "meta": {"OBJECT_NAME": "FENGYUN 1C DEB", "OBJECT_ID": "1999-025EPA", "EPOCH": "2025-12-03T08:51:08.944992", "MEAN_MOTION": 14.79858027, "ECCENTRICITY": 0.0057842, "INCLINATION": 99.0872, "RA_OF_ASC_NODE": 205.2959, "ARG_OF_PERICENTER": 11.9768, "MEAN_ANOMALY": 348.28, "EPHEMERIS_TYPE": 0, "CLASSIFICATION_TYPE": "U", "NORAD_CAT_ID": 37925, "ELEMENT_SET_NO": 999, "REV_AT_EPOCH": 65544, "BSTAR": 0.0022468503, "MEAN_MOTION_DOT": 0.00017399, "MEAN_MOTION_DDOT": 0}, "tle": {"line1": "1 37925U 99025EPA 25337.36885353  .00017399  00000+0  22469-2 0  9995", "line2": "2 37925  99.0872 205.2959 0057842  11.9768 348.2800 14.79858027655443"}}, "geometry": {"type": "Point", "coordinates": [-151.0964789598945, 12.598152540858017]}}, {"type": "Feature", "properties": {"norad_id": 37926, "name": "FENGYUN 1C DEB", "group": "fengyun-1c-debris", "lat": 19.737155241485645, "lon": 42.41869395139525, "alt_km": 843.3615503192314, "timestamp": "2025-12-08T08:59:01.055589+00:00", "meta": {"OBJECT_NAME": "FENGYUN 1C DEB", "OBJECT_ID": "1999-025EPB", "EPOCH": "2025-12-06T15:27:38.675232", "MEAN_MOTION": 14.24154326, "ECCENTRICITY": 0.00537014, "INCLINATION": 98.724, "RA_OF_ASC_NODE": 43.8597, "ARG_OF_PERICENTER": 238.8, "MEAN_ANOMALY": 275.6391, "EPHEMERIS_TYPE": 0, "CLASSIFICATION_TYPE": "U", "NORAD_CAT_ID": 37926, "ELEMENT_SET_NO": 999, "REV_AT_EPOCH": 74183, "BSTAR": 0.0027775156, "MEAN_MOTION_DOT": 6.453e-05, "MEAN_MOTION_DDOT": 0}, "tle": {"line1": "1 37926U 99025EPB 25340.64419763  .00006453  00000+0  27775-2 0  9993", "line2": "2 37926  98.7240  43.8597 0053701 238.8000 275.6391 14.24154326741830"}}, "geometry": {"type": "Point", "coordinates": [42.41869395139525, 19.737155241485645]}}, {"type": "Feature", "properties": {"norad_id": 37927, "name": "FENGYUN 1C DEB", "group": "fengyun-1c-debris", "lat": -36.30198720223538, "lon": 132.240071830368, "alt_km": 658.7261360677876, "timestamp": "2025-12-08T08:59:01.055599+00:00", "meta": {"OBJECT_NAME": "FENGYUN 1C DEB", "OBJECT_ID": "1999-025EPC", "EPOCH": "2025-12-06T03:17:21.100128", "MEAN_MOTION": 14.71223948, "ECCENTRICITY": 0.0007878, "INCLINATION": 98.8081, "RA_OF_ASC_NODE": 123.2811, "ARG_OF_PERICENTER": 289.4464, "MEAN_ANOMALY": 70.5889, "EPHEMERIS_TYPE": 0, "CLASSIFICATION_TYPE": "U", "NORAD_CAT_ID": 37927, "ELEMENT_SET_NO": 999, "REV_AT_EPOCH": 65019, "BSTAR": 0.006299346, "MEAN_MOTION_DOT": 0.00039024, "MEAN_MOTION_DDOT": 0}, "tle": {"line1": "1 37927U 99025EPC 25340.13704977  .00039024  00000+0  62993-2 0  9993", "line2": "2 37927  98.8081 123.2811 0007878 289.4464  70.5889 14.71223948650198"}}, "geometry": {"type": "Point", "coordinates": [132.240071830368, -36.30198720223538]}}, {"type": "Feature", "properties": {"norad_id": 37928, "name": "FENGYUN 1C DEB", "group": "fengyun-1c-debris", "lat": 79.1215365143539, "lon": 162.0448479427892, "alt_km": 719.286326238328, "timestamp": "2025-12-08T08:59:01.055609+00:00", "meta": {"OBJECT_NAME": "FENGYUN 1C DEB", "OBJECT_ID": "1999-025EPD", "EPOCH": "2025-12-05T22:06:55.639584", "MEAN_MOTION": 14.37064476, "ECCENTRICITY": 0.0073466, "INCLINATION": 98.9156, "RA_OF_ASC_NODE": 214.2722, "ARG_OF_PERICENTER": 52.9241, "MEAN_ANOMALY": 307.8631, "EPHEMERIS_TYPE": 0, "CLASSIFICATION_TYPE": "U", "NORAD_CAT_ID": 37928, "ELEMENT_SET_NO": 999, "REV_AT_EPOCH": 81094, "BSTAR": 0.0011316154, "MEAN_MOTION_DOT": 3.419e-05, "MEAN_MOTION_DDOT": 0}, "tle": {"line1": "1 37928U 99025EPD 25339.92147731  .00003419  00000+0  11316-2 0  9990", "line2": "2 37928  98.9156 214.2722 0073466  52.9241 307.8631 14.37064476810940"}}, "geometry": {"type": "Point", "coordinates": [162.0448479427892, 79.1215365143539]}}, {"type": "Feature", "properties": {"norad_id": 38116, "name": "FENGYUN 1C DEB", "group": "fengyun-1c-debris", "lat": 56.276446652411806, "lon": 7.914020920009171, "alt_km": 840.2739220329913, "timestamp": "2025-12-08T08:59:01.055619+00:00", "meta": {"OBJECT_NAME": "FENGYUN 1C DEB", "OBJECT_ID": "1999-025EPM", "EPOCH": "2025-12-07T09:04:23.416320", "MEAN_MOTION": 14.17000645, "ECCENTRICITY": 0.0072352, "INCLINATION": 98.7134, "RA_OF_ASC_NODE": 20.2201, "ARG_OF_PERICENTER": 161.8701, "MEAN_ANOMALY": 216.9739, "EPHEMERIS_TYPE": 0, "CLASSIFICATION_TYPE": "U", "NORAD_CAT_ID": 38116, "ELEMENT_SET_NO": 999, "REV_AT_EPOCH": 64409, "BSTAR": 0.00085024739, "MEAN_MOTION_DOT": 1.71e-05, "MEAN_MOTION_DDOT": 0}, "tle": {"line1": "1 38116U 99025EPM 25341.37804880  .00001710  00000+0  85025-3 0  9998", "line2": "2 38116  98.7134  20.2201 0072352 161.8701 216.9739 14.17000645644091"}}, "geometry": {"type": "Point", "coordinates": [7.914020920009171, 56.276446652411806]}}, {"type": "Feature", "properties": {"norad_id": 38121, "name": "FENGYUN 1C DEB", "group": "fengyun-1c-debris", "lat": -74.46422696916437, "lon": -81.57395102064886, "alt_km": 892.1888826222594, "timestamp": "2025-12-08T08:59:01.055629+00:00", "meta": {"OBJECT_NAME": "FENGYUN 1C DEB", "OBJECT_ID": "1999-025EPS", "EPOCH": "2025-11-29T04:12:17.244576", "MEAN_MOTION": 14.2162433, "ECCENTRICITY": 0.02065546, "INCLINATION": 99.115, "RA_OF_ASC_NODE": 124.1974, "ARG_OF_PERICENTER": 166.4816, "MEAN_ANOMALY": 194.2011, "EPHEMERIS_TYPE": 0, "CLASSIFICATION_TYPE": "U", "NORAD_CAT_ID": 38121, "ELEMENT_SET_NO": 999, "REV_AT_EPOCH": 83727, "BSTAR": 0.001349076, "MEAN_MOTION_DOT": 3.628e-05, "MEAN_MOTION_DDOT": 0}, "tle": {"line1": "1 38121U 99025EPS 25333.17519959  .00003628  00000+0  13491-2 0  9990", "line2": "2 38121  99.1150 124.1974 0206554 166.4816 194.2011 14.21624330837275"}}, "geometry": {"type": "Point", "coordinates": [-81.57395102064886, -74.46422696916437]}}, {"type": "Feature", "properties": {"norad_id": 38122, "name": "FENGYUN 1C DEB", "group": "fengyun-1c-debris", "lat": -45.41926340677817, "lon": 156.37757703353176, "alt_km": 663.0407463539541, "timestamp": "2025-12-08T08:59:01.055640+00:00", "meta": {"OBJECT_NAME": "FENGYUN 1C DEB", "OBJECT_ID": "1999-025EPT", "EPOCH": "2025-12-06T06:00:42.608160", "MEAN_MOTION": 14.42615043, "ECCENTRICITY": 0.02274068, "INCLINATION": 98.3137, "RA_OF_ASC_NODE": 342.838, "ARG_OF_PERICENTER": 176.5296, "MEAN_ANOMALY": 183.7538, "EPHEMERIS_TYPE": 0, "CLASSIFICATION_TYPE": "U", "NORAD_CAT_ID": 38122, "ELEMENT_SET_NO": 999, "REV_AT_EPOCH": 67645, "BSTAR": 0.00078491314, "MEAN_MOTION_DOT": 3.513e-05, "MEAN_MOTION_DDOT": 0}, "tle": {"line1": "1 38122U 99025EPT 25340.25049315  .00003513  00000+0  78491-3 0  9997", "line2": "2 38122  98.3137 342.8380 0227406 176.5296 183.7538 14.42615043676457"}}, "geometry": {"type": "Point", "coordinates": [156.37757703353176, -45.41926340677817]}}]}